{"fetched_at":"2026-07-06T08:47:06.888Z","source":"https://celestrak.org/NORAD/elements/gp.php?NAME=JILIN&FORMAT=JSON","constellation":"jilin-1-gaofen","records":[{"OBJECT_NAME":"JILIN-1 GAOFEN 3A","OBJECT_ID":"2019-032C","EPOCH":"2026-07-05T14:14:35.181600","CLASSIFICATION_TYPE":"U","MEAN_MOTION":15.33054824,"ECCENTRICITY":0.00049357,"INCLINATION":44.9741,"RA_OF_ASC_NODE":255.6077,"ARG_OF_PERICENTER":36.1231,"MEAN_ANOMALY":323.9987,"EPHEMERIS_TYPE":0,"NORAD_CAT_ID":44312,"ELEMENT_SET_NO":999,"REV_AT_EPOCH":39066,"BSTAR":0.00041134813,"MEAN_MOTION_DOT":0.00013108,"MEAN_MOTION_DDOT":0},{"OBJECT_NAME":"JILIN-1 GAOFEN 2A","OBJECT_ID":"2019-075A","EPOCH":"2026-07-05T09:34:40.175904","CLASSIFICATION_TYPE":"U","MEAN_MOTION":15.39825431,"ECCENTRICITY":0.0006138,"INCLINATION":97.4958,"RA_OF_ASC_NODE":270.6202,"ARG_OF_PERICENTER":30.585,"MEAN_ANOMALY":329.5752,"EPHEMERIS_TYPE":0,"NORAD_CAT_ID":44777,"ELEMENT_SET_NO":999,"REV_AT_EPOCH":36768,"BSTAR":0.00046438,"MEAN_MOTION_DOT":0.00018369,"MEAN_MOTION_DDOT":0},{"OBJECT_NAME":"JILIN-1 GAOFEN 2B","OBJECT_ID":"2019-086A","EPOCH":"2026-07-05T08:56:55.535136","CLASSIFICATION_TYPE":"U","MEAN_MOTION":15.2092284,"ECCENTRICITY":0.0012578,"INCLINATION":97.4869,"RA_OF_ASC_NODE":258.2515,"ARG_OF_PERICENTER":253.1241,"MEAN_ANOMALY":106.8616,"EPHEMERIS_TYPE":0,"NORAD_CAT_ID":44836,"ELEMENT_SET_NO":999,"REV_AT_EPOCH":36325,"BSTAR":0.00038385,"MEAN_MOTION_DOT":0.00008443,"MEAN_MOTION_DDOT":0},{"OBJECT_NAME":"JILIN-1 GAOFEN 3E","OBJECT_ID":"2020-065D","EPOCH":"2026-07-05T09:12:49.943232","CLASSIFICATION_TYPE":"U","MEAN_MOTION":15.66124743,"ECCENTRICITY":0.0011613,"INCLINATION":97.2219,"RA_OF_ASC_NODE":239.441,"ARG_OF_PERICENTER":102.4455,"MEAN_ANOMALY":257.8105,"EPHEMERIS_TYPE":0,"NORAD_CAT_ID":46457,"ELEMENT_SET_NO":999,"REV_AT_EPOCH":32260,"BSTAR":0.00097386,"MEAN_MOTION_DOT":0.00101104,"MEAN_MOTION_DDOT":0},{"OBJECT_NAME":"JILIN-1 GAOFEN 3F","OBJECT_ID":"2020-065E","EPOCH":"2026-07-05T13:41:34.994688","CLASSIFICATION_TYPE":"U","MEAN_MOTION":15.63047441,"ECCENTRICITY":0.00129985,"INCLINATION":97.2176,"RA_OF_ASC_NODE":236.8759,"ARG_OF_PERICENTER":89.2681,"MEAN_ANOMALY":271.0067,"EPHEMERIS_TYPE":0,"NORAD_CAT_ID":46458,"ELEMENT_SET_NO":999,"REV_AT_EPOCH":32257,"BSTAR":0.00085970955,"MEAN_MOTION_DOT":0.0007889,"MEAN_MOTION_DDOT":0},{"OBJECT_NAME":"JILIN-1 GAOFEN 3G","OBJECT_ID":"2020-065F","EPOCH":"2026-07-05T09:44:44.568960","CLASSIFICATION_TYPE":"U","MEAN_MOTION":15.75076813,"ECCENTRICITY":0.0004839,"INCLINATION":97.2237,"RA_OF_ASC_NODE":243.8355,"ARG_OF_PERICENTER":331.9551,"MEAN_ANOMALY":28.1453,"EPHEMERIS_TYPE":0,"NORAD_CAT_ID":46459,"ELEMENT_SET_NO":999,"REV_AT_EPOCH":32280,"BSTAR":0.00093563,"MEAN_MOTION_DOT":0.00141133,"MEAN_MOTION_DDOT":0},{"OBJECT_NAME":"JILIN-1 GAOFEN 3H","OBJECT_ID":"2020-065G","EPOCH":"2026-07-05T10:07:29.189568","CLASSIFICATION_TYPE":"U","MEAN_MOTION":15.70831773,"ECCENTRICITY":0.0004812,"INCLINATION":97.2179,"RA_OF_ASC_NODE":240.0605,"ARG_OF_PERICENTER":239.5351,"MEAN_ANOMALY":120.5437,"EPHEMERIS_TYPE":0,"NORAD_CAT_ID":46460,"ELEMENT_SET_NO":999,"REV_AT_EPOCH":32274,"BSTAR":0.00098568,"MEAN_MOTION_DOT":0.00123954,"MEAN_MOTION_DDOT":0},{"OBJECT_NAME":"JILIN-1 GAOFEN 2F","OBJECT_ID":"2021-097A","EPOCH":"2026-07-05T08:25:52.834944","CLASSIFICATION_TYPE":"U","MEAN_MOTION":15.07900602,"ECCENTRICITY":0.0019217,"INCLINATION":97.6729,"RA_OF_ASC_NODE":312.5092,"ARG_OF_PERICENTER":161.2529,"MEAN_ANOMALY":198.9411,"EPHEMERIS_TYPE":0,"NORAD_CAT_ID":49338,"ELEMENT_SET_NO":999,"REV_AT_EPOCH":25905,"BSTAR":0.00042127,"MEAN_MOTION_DOT":0.00006427,"MEAN_MOTION_DDOT":0},{"OBJECT_NAME":"JILIN-1 GAOFEN 3D27","OBJECT_ID":"2022-048B","EPOCH":"2026-07-05T08:38:08.797056","CLASSIFICATION_TYPE":"U","MEAN_MOTION":15.80366668,"ECCENTRICITY":0.000382,"INCLINATION":97.5721,"RA_OF_ASC_NODE":302.008,"ARG_OF_PERICENTER":269.5107,"MEAN_ANOMALY":90.5723,"EPHEMERIS_TYPE":0,"NORAD_CAT_ID":52444,"ELEMENT_SET_NO":999,"REV_AT_EPOCH":23234,"BSTAR":0.00097329,"MEAN_MOTION_DOT":0.00186544,"MEAN_MOTION_DDOT":0},{"OBJECT_NAME":"JILIN-1 GAOFEN 3D28","OBJECT_ID":"2022-048C","EPOCH":"2026-07-05T09:09:57.384288","CLASSIFICATION_TYPE":"U","MEAN_MOTION":15.84551291,"ECCENTRICITY":0.0003624,"INCLINATION":97.5669,"RA_OF_ASC_NODE":302.2691,"ARG_OF_PERICENTER":257.9351,"MEAN_ANOMALY":102.1512,"EPHEMERIS_TYPE":0,"NORAD_CAT_ID":52445,"ELEMENT_SET_NO":999,"REV_AT_EPOCH":23240,"BSTAR":0.00099987,"MEAN_MOTION_DOT":0.00233951,"MEAN_MOTION_DDOT":0},{"OBJECT_NAME":"JILIN-1 GAOFEN 3D29","OBJECT_ID":"2022-048D","EPOCH":"2026-07-05T09:49:20.846784","CLASSIFICATION_TYPE":"U","MEAN_MOTION":15.80566917,"ECCENTRICITY":0.000343,"INCLINATION":97.5717,"RA_OF_ASC_NODE":302.4252,"ARG_OF_PERICENTER":242.7299,"MEAN_ANOMALY":117.3619,"EPHEMERIS_TYPE":0,"NORAD_CAT_ID":52446,"ELEMENT_SET_NO":999,"REV_AT_EPOCH":23237,"BSTAR":0.00095953,"MEAN_MOTION_DOT":0.00185552,"MEAN_MOTION_DDOT":0},{"OBJECT_NAME":"JILIN-1 GAOFEN 3D31","OBJECT_ID":"2022-048F","EPOCH":"2026-07-05T08:53:49.405344","CLASSIFICATION_TYPE":"U","MEAN_MOTION":15.8906798,"ECCENTRICITY":0.0004103,"INCLINATION":97.5702,"RA_OF_ASC_NODE":303.5817,"ARG_OF_PERICENTER":247.8913,"MEAN_ANOMALY":112.1924,"EPHEMERIS_TYPE":0,"NORAD_CAT_ID":52448,"ELEMENT_SET_NO":999,"REV_AT_EPOCH":23246,"BSTAR":0.0010764,"MEAN_MOTION_DOT":0.00304923,"MEAN_MOTION_DDOT":0.000035901},{"OBJECT_NAME":"JILIN-1 GAOFEN 03D09","OBJECT_ID":"2022-098B","EPOCH":"2026-07-05T14:15:30.635712","CLASSIFICATION_TYPE":"U","MEAN_MOTION":15.69062113,"ECCENTRICITY":0.00026819,"INCLINATION":97.562,"RA_OF_ASC_NODE":317.6803,"ARG_OF_PERICENTER":265.9731,"MEAN_ANOMALY":94.1223,"EPHEMERIS_TYPE":0,"NORAD_CAT_ID":53445,"ELEMENT_SET_NO":999,"REV_AT_EPOCH":21751,"BSTAR":0.00075067986,"MEAN_MOTION_DOT":0.00087314,"MEAN_MOTION_DDOT":0},{"OBJECT_NAME":"JILIN-1 GAOFEN 03D43","OBJECT_ID":"2022-098E","EPOCH":"2026-07-05T14:12:48.004128","CLASSIFICATION_TYPE":"U","MEAN_MOTION":15.72560291,"ECCENTRICITY":0.00029335,"INCLINATION":97.5604,"RA_OF_ASC_NODE":318.785,"ARG_OF_PERICENTER":257.0052,"MEAN_ANOMALY":103.0884,"EPHEMERIS_TYPE":0,"NORAD_CAT_ID":53448,"ELEMENT_SET_NO":999,"REV_AT_EPOCH":21758,"BSTAR":0.00079621292,"MEAN_MOTION_DOT":0.00107382,"MEAN_MOTION_DDOT":0},{"OBJECT_NAME":"JILIN-1 GAOFEN 03D08","OBJECT_ID":"2022-155A","EPOCH":"2026-07-05T15:17:18.151296","CLASSIFICATION_TYPE":"U","MEAN_MOTION":15.66618421,"ECCENTRICITY":0.00036905,"INCLINATION":97.623,"RA_OF_ASC_NODE":333.5375,"ARG_OF_PERICENTER":262.6526,"MEAN_ANOMALY":97.4314,"EPHEMERIS_TYPE":0,"NORAD_CAT_ID":54251,"ELEMENT_SET_NO":999,"REV_AT_EPOCH":20270,"BSTAR":0.00068024406,"MEAN_MOTION_DOT":0.00071523,"MEAN_MOTION_DDOT":0}]}
