JILIN-1 GAOFEN 3A       
1 44312U 19032C   26186.59346275  .00013108  00000+0  41135-3 0  9992
2 44312  44.9741 255.6077 0004935  36.1231 323.9987 15.33054824390664
JILIN-1 GAOFEN 2A       
1 44777U 19075A   26186.39907612  .00018369  00000+0  46438-3 0  9995
2 44777  97.4958 270.6202 0006137  30.5850 329.5752 15.39825431367684
JILIN-1 GAOFEN 2B       
1 44836U 19086A   26186.37286499  .00008443  00000+0  38385-3 0  9998
2 44836  97.4869 258.2515 0012577 253.1241 106.8616 15.20922840363258
JILIN-1 GAOFEN 3E       
1 46457U 20065D   26186.38391138  .00101104  00000+0  97386-3 0  9990
2 46457  97.2219 239.4410 0011613 102.4455 257.8105 15.66124743322604
JILIN-1 GAOFEN 3F       
1 46458U 20065E   26186.57054392  .00078890  00000+0  85971-3 0  9992
2 46458  97.2176 236.8759 0012998  89.2681 271.0067 15.63047441322571
JILIN-1 GAOFEN 3G       
1 46459U 20065F   26186.40607141  .00141133  00000+0  93563-3 0  9998
2 46459  97.2237 243.8355 0004838 331.9551  28.1453 15.75076813322801
JILIN-1 GAOFEN 3H       
1 46460U 20065G   26186.42186563  .00123954  00000+0  98568-3 0  9993
2 46460  97.2179 240.0605 0004811 239.5351 120.5437 15.70831773322748
JILIN-1 GAOFEN 2F       
1 49338U 21097A   26186.35130597  .00006427  00000+0  42127-3 0  9999
2 49338  97.6729 312.5092 0019217 161.2529 198.9411 15.07900602259051
JILIN-1 GAOFEN 3D27     
1 52444U 22048B   26186.35982404  .00186544  00000+0  97329-3 0  9993
2 52444  97.5721 302.0080 0003819 269.5107  90.5723 15.80366668232345
JILIN-1 GAOFEN 3D28     
1 52445U 22048C   26186.38191417  .00233951  00000+0  99987-3 0  9990
2 52445  97.5669 302.2691 0003623 257.9351 102.1512 15.84551291232407
JILIN-1 GAOFEN 3D29     
1 52446U 22048D   26186.40926907  .00185552  00000+0  95953-3 0  9996
2 52446  97.5717 302.4252 0003429 242.7299 117.3619 15.80566917232373
JILIN-1 GAOFEN 3D31     
1 52448U 22048F   26186.37071071  .00304923  35901-4  10764-2 0  9991
2 52448  97.5702 303.5817 0004103 247.8913 112.1924 15.89067980232464
JILIN-1 GAOFEN 03D09    
1 53445U 22098B   26186.59410458  .00087314  00000+0  75068-3 0  9992
2 53445  97.5620 317.6803 0002681 265.9731  94.1223 15.69062113217511
JILIN-1 GAOFEN 03D43    
1 53448U 22098E   26186.59222227  .00107382  00000+0  79621-3 0  9997
2 53448  97.5604 318.7850 0002933 257.0052 103.0884 15.72560291217582
JILIN-1 GAOFEN 03D08    
1 54251U 22155A   26186.63701564  .00071523  00000+0  68024-3 0  9997
2 54251  97.6230 333.5375 0003690 262.6526  97.4314 15.66618421202701
